sat14049
1 14049U 65027L   20046.53470302  .00000332  00000-0  11750-2 0  9998
2 14049  90.2977 313.3980 0032814 120.6819  57.7468 12.93889774759013
